[
    {
        "Altitude(m)": 610405.3178717198,
        "Argument of Periapsis(deg)": 0.0,
        "Eccentricity": 0.0,
        "Inclination(deg)": 60.0,
        "Latitude(deg)": 52.11125733991015,
        "Longitude(deg)": 177.47756022205633,
        "Mean Anomaly(deg)": 114.54549999999999,
        "RAAN(deg)": 145.0,
        "Satellite Name": "Test1 645",
        "Satellite Number": 645,
        "Semi-Major Axis(m)": 6980739.136638005,
        "Time(s)": 0
    },
    {
        "Altitude(m)": 610321.890291731,
        "Argument of Periapsis(deg)": 0.00010418945913296404,
        "Eccentricity": 0.0,
        "Inclination(deg)": 60.0,
        "Latitude(deg)": 51.745970823436565,
        "Longitude(deg)": 178.2464519385558,
        "Mean Anomaly(deg)": 115.16560614546184,
        "RAAN(deg)": 144.99957995086027,
        "Satellite Name": "Test1 645",
        "Satellite Number": 645,
        "Semi-Major Axis(m)": 6980739.136638005,
        "Time(s)": 10
    }
]